ONEWEB-0628             
1 55169U 23004AF  25049.83170566 -.00000039  00000+0 -14478-3 0  9991
2 55169  87.8818  86.8660 0001133  96.0273 264.0985 13.12443883104632
ONEWEB-0629             
1 55170U 23004AG  25049.17228840  .00000049  00000+0  93706-4 0  9990
2 55170  87.9041 102.2938 0001727 110.4801 249.6516 13.17647935103841
ONEWEB-0631             
1 55171U 23004AH  25049.76773491  .00002203  00000+0  55542-2 0  9991
2 55171  87.9054  71.5673 0002221  74.3353 285.8024 13.18675984105967
ONEWEB-0709             
1 55172U 23004AJ  25049.25393450  .00000564  00000+0  15547-2 0  9998
2 55172  87.8869 117.5708 0002612  85.6749 274.4677 13.11415370102441
ONEWEB-0710             
1 55173U 23004AK  25049.18663753  .00000051  00000+0  98368-4 0  9992
2 55173  87.9042 102.3153 0001786  97.2032 262.9303 13.17650182103848
ONEWEB-0711             
1 55174U 23004AL  25049.22509612 -.00000190  00000+0 -57060-3 0  9990
2 55174  87.8869 117.5446 0001083  93.4412 266.6840 13.11419096102407
ONEWEB-0713             
1 55175U 23004AM  25049.24375928  .00000542  00000+0  14920-2 0  9990
2 55175  87.8867 117.5488 0001559  99.8444 260.2860 13.11417242102396
ONEWEB-0715             
1 55176U 23004AN  25049.69645541  .00000190  00000+0  49919-3 0  9997
2 55176  87.8869 117.4590 0001985  90.7481 269.3874 13.11417694102505
